{
  "norad_id": 52369,
  "name": "STARLINK-3841",
  "history": [
    {
      "epoch": "2026-03-28T07:48:33.627744Z",
      "apogee_km": 540.7117138391732,
      "perigee_km": 538.7622569500882,
      "latitude_deg": 3.2992817234068366e-05,
      "longitude_deg": 162.57405498842655,
      "height_km": 540.6319454631217,
      "semi_major_axis_km": 6917.87398539463,
      "eccentricity": 0.0001409,
      "inclination_deg": 53.2173,
      "raan_deg": 105.4616,
      "arg_perigee_deg": 89.961,
      "mean_anomaly_deg": 270.1544,
      "mean_motion_rev_day": 15.08842095
    },
    {
      "epoch": "2026-03-29T04:28:35.270112Z",
      "apogee_km": 540.7678139918089,
      "perigee_km": 538.7754563048866,
      "latitude_deg": -4.800564744951005e-06,
      "longitude_deg": -152.14728505697568,
      "height_km": 540.7008115135085,
      "semi_major_axis_km": 6917.9086351483475,
      "eccentricity": 0.000144,
      "inclination_deg": 53.2178,
      "raan_deg": 101.5959,
      "arg_perigee_deg": 91.9295,
      "mean_anomaly_deg": 268.1862,
      "mean_motion_rev_day": 15.08830759
    },
    {
      "epoch": "2026-03-30T01:08:36.563424Z",
      "apogee_km": 540.6609254650157,
      "perigee_km": 538.9162246349888,
      "latitude_deg": 3.097485666520022e-05,
      "longitude_deg": -106.86771138381764,
      "height_km": 540.6756944408991,
      "semi_major_axis_km": 6917.925575050002,
      "eccentricity": 0.0001261,
      "inclination_deg": 53.2174,
      "raan_deg": 97.7296,
      "arg_perigee_deg": 89.4277,
      "mean_anomaly_deg": 270.686,
      "mean_motion_rev_day": 15.08825217
    },
    {
      "epoch": "2026-03-30T05:54:46.093248Z",
      "apogee_km": 540.6733295982176,
      "perigee_km": 538.8997123659074,
      "latitude_deg": -1.0416150556661524e-06,
      "longitude_deg": -179.49541131861363,
      "height_km": 540.6764952531556,
      "semi_major_axis_km": 6917.923520982062,
      "eccentricity": 0.00012819,
      "inclination_deg": 53.2172,
      "raan_deg": 96.8375,
      "arg_perigee_deg": 89.6244,
      "mean_anomaly_deg": 270.4895,
      "mean_motion_rev_day": 15.08825889
    },
    {
      "epoch": "2026-03-30T07:30:09.229248Z",
      "apogee_km": 540.6809177919313,
      "perigee_km": 538.8894526628446,
      "latitude_deg": 4.115103095626273e-05,
      "longitude_deg": 156.29553100593702,
      "height_km": 540.6729601899593,
      "semi_major_axis_km": 6917.922185227388,
      "eccentricity": 0.00012948,
      "inclination_deg": 53.2173,
      "raan_deg": 96.5401,
      "arg_perigee_deg": 89.4883,
      "mean_anomaly_deg": 270.6258,
      "mean_motion_rev_day": 15.08826326
    }
  ]
}